{"type": "FeatureCollection", "features": [ {"type": "Feature", "properties": {"norad_id": 30501, "name": "FENGYUN 1C DEB", "group": "fengyun-1c-debris", "lat": -79.8782783796717, "lon": 98.76126078718222, "alt_km": 807.6678915941275, "timestamp": "2025-12-17T10:52:54.630111+00:00", "meta": {"OBJECT_NAME": "FENGYUN 1C DEB", "OBJECT_ID": "1999-025AHP", "EPOCH": "2025-12-16T22:08:40.294176", "MEAN_MOTION": 14.25371768, "ECCENTRICITY": 0.00404761, "INCLINATION": 99.0839, "RA_OF_ASC_NODE": 341.875, "ARG_OF_PERICENTER": 190.4906, "MEAN_ANOMALY": 232.7871, "EPHEMERIS_TYPE": 0, "CLASSIFICATION_TYPE": "U", "NORAD_CAT_ID": 30501, "ELEMENT_SET_NO": 999, "REV_AT_EPOCH": 96979, "BSTAR": 0.0012954289, "MEAN_MOTION_DOT": 3.034e-05, "MEAN_MOTION_DDOT": 0}, "tle": {"line1": "1 30501U 99025AHP 25350.92268859  .00003034  00000+0  12954-2 0  9990", "line2": "2 30501  99.0839 341.8750 0040476 190.4906 232.7871 14.25371768969791"}}, "geometry": {"type": "Point", "coordinates": [98.76126078718222, -79.8782783796717]}}, {"type": "Feature", "properties": {"norad_id": 30503, "name": "FENGYUN 1C DEB", "group": "fengyun-1c-debris", "lat": -34.961522407958476, "lon": -158.36107037243158, "alt_km": 842.799130680417, "timestamp": "2025-12-17T10:52:54.630121+00:00", "meta": {"OBJECT_NAME": "FENGYUN 1C DEB", "OBJECT_ID": "1999-025AHR", "EPOCH": "2025-12-15T20:07:45.158304", "MEAN_MOTION": 14.16128307, "ECCENTRICITY": 0.00082702, "INCLINATION": 99.2043, "RA_OF_ASC_NODE": 193.4614, "ARG_OF_PERICENTER": 257.1945, "MEAN_ANOMALY": 120.0728, "EPHEMERIS_TYPE": 0, "CLASSIFICATION_TYPE": "U", "NORAD_CAT_ID": 30503, "ELEMENT_SET_NO": 999, "REV_AT_EPOCH": 97390, "BSTAR": 0.00027252236, "MEAN_MOTION_DOT": 4.91e-06, "MEAN_MOTION_DDOT": 0}, "tle": {"line1": "1 30503U 99025AHR 25349.83871711  .00000491  00000+0  27252-3 0  9999", "line2": "2 30503  99.2043 193.4614 0008270 257.1945 120.0728 14.16128307973909"}}, "geometry": {"type": "Point", "coordinates": [-158.36107037243158, -34.961522407958476]}}, {"type": "Feature", "properties": {"norad_id": 30504, "name": "FENGYUN 1C DEB", "group": "fengyun-1c-debris", "lat": -70.13150302020685, "lon": -168.3600264309459, "alt_km": 777.4959296651978, "timestamp": "2025-12-17T10:52:54.630131+00:00", "meta": {"OBJECT_NAME": "FENGYUN 1C DEB", "OBJECT_ID": "1999-025AHS", "EPOCH": "2025-12-16T15:42:44.428032", "MEAN_MOTION": 14.20504013, "ECCENTRICITY": 0.01123357, "INCLINATION": 99.025, "RA_OF_ASC_NODE": 36.9162, "ARG_OF_PERICENTER": 205.2699, "MEAN_ANOMALY": 283.6753, "EPHEMERIS_TYPE": 0, "CLASSIFICATION_TYPE": "U", "NORAD_CAT_ID": 30504, "ELEMENT_SET_NO": 999, "REV_AT_EPOCH": 97449, "BSTAR": 0.00052735166, "MEAN_MOTION_DOT": 1.16e-05, "MEAN_MOTION_DDOT": 0}, "tle": {"line1": "1 30504U 99025AHS 25350.65468088  .00001160  00000+0  52735-3 0  9999", "line2": "2 30504  99.0250  36.9162 0112335 205.2699 283.6753 14.20504013974491"}}, "geometry": {"type": "Point", "coordinates": [-168.3600264309459, -70.13150302020685]}}, {"type": "Feature", "properties": {"norad_id": 30505, "name": "FENGYUN 1C DEB", "group": "fengyun-1c-debris", "lat": 2.840320750064071, "lon": -108.38313321822855, "alt_km": 792.1822363456758, "timestamp": "2025-12-17T10:52:54.630151+00:00", "meta": {"OBJECT_NAME": "FENGYUN 1C DEB", "OBJECT_ID": "1999-025AHT", "EPOCH": "2025-12-16T17:45:42.604416", "MEAN_MOTION": 14.22065345, "ECCENTRICITY": 0.00638654, "INCLINATION": 98.9265, "RA_OF_ASC_NODE": 70.4483, "ARG_OF_PERICENTER": 230.6877, "MEAN_ANOMALY": 257.0696, "EPHEMERIS_TYPE": 0, "CLASSIFICATION_TYPE": "U", "NORAD_CAT_ID": 30505, "ELEMENT_SET_NO": 999, "REV_AT_EPOCH": 96980, "BSTAR": 0.0013447228, "MEAN_MOTION_DOT": 2.992e-05, "MEAN_MOTION_DDOT": 0}, "tle": {"line1": "1 30505U 99025AHT 25350.74007644  .00002992  00000+0  13447-2 0  9997", "line2": "2 30505  98.9265  70.4483 0063865 230.6877 257.0696 14.22065345969800"}}, "geometry": {"type": "Point", "coordinates": [-108.38313321822855, 2.840320750064071]}}, {"type": "Feature", "properties": {"norad_id": 30506, "name": "FENGYUN 1C DEB", "group": "fengyun-1c-debris", "lat": -20.708199672931663, "lon": -0.2681281618260769, "alt_km": 818.5049113700707, "timestamp": "2025-12-17T10:52:54.630163+00:00", "meta": {"OBJECT_NAME": "FENGYUN 1C DEB", "OBJECT_ID": "1999-025AHU", "EPOCH": "2025-12-16T13:25:27.554016", "MEAN_MOTION": 14.08655063, "ECCENTRICITY": 0.00701175, "INCLINATION": 98.7568, "RA_OF_ASC_NODE": 355.5233, "ARG_OF_PERICENTER": 337.1507, "MEAN_ANOMALY": 150.5215, "EPHEMERIS_TYPE": 0, "CLASSIFICATION_TYPE": "U", "NORAD_CAT_ID": 30506, "ELEMENT_SET_NO": 999, "REV_AT_EPOCH": 96875, "BSTAR": 0.0003328616, "MEAN_MOTION_DOT": 5.43e-06, "MEAN_MOTION_DDOT": 0}, "tle": {"line1": "1 30506U 99025AHU 25350.55934669  .00000543  00000+0  33286-3 0  9997", "line2": "2 30506  98.7568 355.5233 0070117 337.1507 150.5215 14.08655063968759"}}, "geometry": {"type": "Point", "coordinates": [-0.2681281618260769, -20.708199672931663]}}, {"type": "Feature", "properties": {"norad_id": 30507, "name": "FENGYUN 1C DEB", "group": "fengyun-1c-debris", "lat": 6.914420959101602, "lon": -122.92540259721135, "alt_km": 758.8713131243103, "timestamp": "2025-12-17T10:52:54.630173+00:00", "meta": {"OBJECT_NAME": "FENGYUN 1C DEB", "OBJECT_ID": "1999-025AHV", "EPOCH": "2025-12-16T22:59:55.799808", "MEAN_MOTION": 14.13197607, "ECCENTRICITY": 0.01284376, "INCLINATION": 99.0137, "RA_OF_ASC_NODE": 55.473, "ARG_OF_PERICENTER": 164.5225, "MEAN_ANOMALY": 10.5538, "EPHEMERIS_TYPE": 0, "CLASSIFICATION_TYPE": "U", "NORAD_CAT_ID": 30507, "ELEMENT_SET_NO": 999, "REV_AT_EPOCH": 96557, "BSTAR": 0.0008500973, "MEAN_MOTION_DOT": 1.676e-05, "MEAN_MOTION_DDOT": 0}, "tle": {"line1": "1 30507U 99025AHV 25350.95828472  .00001676  00000+0  85010-3 0  9996", "line2": "2 30507  99.0137  55.4730 0128437 164.5225  10.5538 14.13197607965573"}}, "geometry": {"type": "Point", "coordinates": [-122.92540259721135, 6.914420959101602]}}, {"type": "Feature", "properties": {"norad_id": 30509, "name": "FENGYUN 1C DEB", "group": "fengyun-1c-debris", "lat": -69.60555032740577, "lon": 19.38670325524971, "alt_km": 943.4448191562778, "timestamp": "2025-12-17T10:52:54.630184+00:00", "meta": {"OBJECT_NAME": "FENGYUN 1C DEB", "OBJECT_ID": "1999-025AHX", "EPOCH": "2025-12-16T15:11:26.454048", "MEAN_MOTION": 14.07676973, "ECCENTRICITY": 0.01020921, "INCLINATION": 98.4668, "RA_OF_ASC_NODE": 222.2355, "ARG_OF_PERICENTER": 52.4654, "MEAN_ANOMALY": 3.8069, "EPHEMERIS_TYPE": 0, "CLASSIFICATION_TYPE": "U", "NORAD_CAT_ID": 30509, "ELEMENT_SET_NO": 999, "REV_AT_EPOCH": 95777, "BSTAR": 0.0015776014, "MEAN_MOTION_DOT": 2.757e-05, "MEAN_MOTION_DDOT": 0}, "tle": {"line1": "1 30509U 99025AHX 25350.63294507  .00002757  00000+0  15776-2 0  9991", "line2": "2 30509  98.4668 222.2355 0102092  52.4654   3.8069 14.07676973957772"}}, "geometry": {"type": "Point", "coordinates": [19.38670325524971, -69.60555032740577]}}, {"type": "Feature", "properties": {"norad_id": 30510, "name": "FENGYUN 1C DEB", "group": "fengyun-1c-debris", "lat": 28.994270962183307, "lon": -1.5451917653157454, "alt_km": 879.2863641035547, "timestamp": "2025-12-17T10:52:54.630194+00:00", "meta": {"OBJECT_NAME": "FENGYUN 1C DEB", "OBJECT_ID": "1999-025AHY", "EPOCH": "2025-12-16T23:08:23.563968", "MEAN_MOTION": 14.12871438, "ECCENTRICITY": 0.00786311, "INCLINATION": 99.2451, "RA_OF_ASC_NODE": 3.1286, "ARG_OF_PERICENTER": 154.5278, "MEAN_ANOMALY": 268.6208, "EPHEMERIS_TYPE": 0, "CLASSIFICATION_TYPE": "U", "NORAD_CAT_ID": 30510, "ELEMENT_SET_NO": 999, "REV_AT_EPOCH": 96634, "BSTAR": 0.0011344788, "MEAN_MOTION_DOT": 2.127e-05, "MEAN_MOTION_DDOT": 0}, "tle": {"line1": "1 30510U 99025AHY 25350.96416162  .00002127  00000+0  11345-2 0  9991", "line2": "2 30510  99.2451   3.1286 0078631 154.5278 268.6208 14.12871438966347"}}, "geometry": {"type": "Point", "coordinates": [-1.5451917653157454, 28.994270962183307]}}, {"type": "Feature", "properties": {"norad_id": 30514, "name": "FENGYUN 1C DEB", "group": "fengyun-1c-debris", "lat": -2.5412548363298177, "lon": -165.51521177190318, "alt_km": 804.9206639402555, "timestamp": "2025-12-17T10:52:54.630204+00:00", "meta": {"OBJECT_NAME": "FENGYUN 1C DEB", "OBJECT_ID": "1999-025AJC", "EPOCH": "2025-12-16T13:57:43.741728", "MEAN_MOTION": 14.34369334, "ECCENTRICITY": 0.01744322, "INCLINATION": 98.4131, "RA_OF_ASC_NODE": 14.0122, "ARG_OF_PERICENTER": 82.7486, "MEAN_ANOMALY": 279.3491, "EPHEMERIS_TYPE": 0, "CLASSIFICATION_TYPE": "U", "NORAD_CAT_ID": 30514, "ELEMENT_SET_NO": 999, "REV_AT_EPOCH": 98280, "BSTAR": 0.0004030378, "MEAN_MOTION_DOT": 1.299e-05, "MEAN_MOTION_DDOT": 0}, "tle": {"line1": "1 30514U 99025AJC 25350.58175627  .00001299  00000+0  40304-3 0  9998", "line2": "2 30514  98.4131  14.0122 0174432  82.7486 279.3491 14.34369334982809"}}, "geometry": {"type": "Point", "coordinates": [-165.51521177190318, -2.5412548363298177]}}, {"type": "Feature", "properties": {"norad_id": 30515, "name": "FENGYUN 1C DEB", "group": "fengyun-1c-debris", "lat": -55.135207435747645, "lon": 34.63359427750305, "alt_km": 1394.3552264430518, "timestamp": "2025-12-17T10:52:54.630215+00:00", "meta": {"OBJECT_NAME": "FENGYUN 1C DEB", "OBJECT_ID": "1999-025AJD", "EPOCH": "2025-12-16T21:43:00.155424", "MEAN_MOTION": 13.63805422, "ECCENTRICITY": 0.04969623, "INCLINATION": 98.5096, "RA_OF_ASC_NODE": 226.5602, "ARG_OF_PERICENTER": 63.6223, "MEAN_ANOMALY": 359.9868, "EPHEMERIS_TYPE": 0, "CLASSIFICATION_TYPE": "U", "NORAD_CAT_ID": 30515, "ELEMENT_SET_NO": 999, "REV_AT_EPOCH": 93387, "BSTAR": 0.00081341395, "MEAN_MOTION_DOT": 1.464e-05, "MEAN_MOTION_DDOT": 0}, "tle": {"line1": "1 30515U 99025AJD 25350.90486291  .00001464  00000+0  81341-3 0  9997", "line2": "2 30515  98.5096 226.5602 0496962  63.6223 359.9868 13.63805422933876"}}, "geometry": {"type": "Point", "coordinates": [34.63359427750305, -55.135207435747645]}}]}